NORAD_CAT_ID,OBJECT_NAME,OBJECT_TYPE,EPOCH,MEAN_MOTION,ECCENTRICITY,INCLINATION,RA_OF_ASC_NODE,ARG_OF_PERICENTER,MEAN_ANOMALY,BSTAR,MEAN_MOTION_DOT,MEAN_MOTION_DDOT,TLE_LINE0,TLE_LINE1,TLE_LINE2,SEMIMAJOR_AXIS,PERIOD,APOGEE,PERIGEE,DECAYED
56467.0,STARLINK-6055,PAYLOAD,2023-12-30 03:41:07,14.98328063,0.0002908,70.0005,343.0152,268.5856,91.497,1.4641e-05,8.2e-07,0.0,0 STARLINK-6055,1 56467U 23064V   23364.15355960  .00000082  00000-0  14641-4 0  9995,2 56467  70.0005 343.0152 0002908 268.5856  91.4970 14.98328063 36181,6950.199,96.107,574.085,570.043,0.0
56467.0,STARLINK-6055,PAYLOAD,2023-12-30 08:29:31,14.98331574,0.0002795,70.0007,342.511,266.0244,94.0596,4.6527e-05,4.62e-06,0.0,0 STARLINK-6055,1 56467U 23064V   23364.35383554  .00000462  00000-0  46527-4 0  9997,2 56467  70.0007 342.5110 0002795 266.0244  94.0596 14.98331574 35856,6950.188,96.107,573.996,570.11,0.0
56467.0,STARLINK-6055,PAYLOAD,2023-12-30 22:54:44,14.98329302,0.000256,70.0013,340.9958,266.2271,93.8595,4.7579e-05,4.75e-06,0.0,0 STARLINK-6055,1 56467U 23064V   23364.95467647  .00000475  00000-0  47579-4 0  9991,2 56467  70.0013 340.9958 0002560 266.2271  93.8595 14.98329302 35949,6950.195,96.107,573.839,570.281,0.0
56467.0,STARLINK-6055,PAYLOAD,2023-12-31 03:43:08,14.98323735,0.000288,70.0008,340.4902,270.7926,89.2903,3.2668e-05,2.97e-06,0.0,0 STARLINK-6055,1 56467U 23064V   23365.15496086  .00000297  00000-0  32668-4 0  9998,2 56467  70.0008 340.4902 0002880 270.7926  89.2903 14.98323735 36339,6950.212,96.107,574.079,570.076,0.0
56467.0,STARLINK-6055,PAYLOAD,2023-12-31 08:31:32,14.98327009,0.0002754,70.0009,339.9861,268.2173,91.8671,3.8772e-05,3.7e-06,0.0,0 STARLINK-6055,1 56467U 23064V   23365.35523895  .00000370  00000-0  38772-4 0  9993,2 56467  70.0009 339.9861 0002754 268.2173  91.8671 14.98327009 36006,6950.202,96.107,573.981,570.153,0.0
56467.0,STARLINK-6055,PAYLOAD,2024-01-01 03:45:09,14.98330804,0.0002797,70.0008,337.9661,262.904,97.1801,-3.0941e-05,-4.62e-06,0.0,0 STARLINK-6055,1 56467U 23064V   24001.15635818 -.00000462  00000-0 -30941-4 0  9992,2 56467  70.0008 337.9661 0002797 262.9040  97.1801 14.98330804 36485,6950.19,96.107,573.999,570.111,0.0
56467.0,STARLINK-6055,PAYLOAD,2024-01-01 08:33:33,14.98331828,0.0002781,70.0007,337.4611,262.6132,97.4711,-1.7206e-05,-2.98e-06,0.0,0 STARLINK-6055,1 56467U 23064V   24001.35663693 -.00000298  00000-0 -17206-4 0  9992,2 56467  70.0007 337.4611 0002781 262.6132  97.4711 14.98331828 36150,6950.187,96.107,573.985,570.119,0.0
56467.0,STARLINK-6055,PAYLOAD,2024-01-01 22:58:45,14.98361846,0.0002586,70.0007,335.9454,269.2546,90.8316,-0.00047687,-5.783e-05,0.0,0 STARLINK-6055,1 56467U 23064V   24001.95747386 -.00005783  00000-0 -47687-3 0  9999,2 56467  70.0007 335.9454 0002586 269.2546  90.8316 14.98361846 36244,6950.094,96.105,573.757,570.162,0.0
56467.0,STARLINK-6055,PAYLOAD,2024-01-02 03:47:10,14.98329471,0.0002714,70.0011,335.441,267.3096,92.7752,2.757e-05,2.36e-06,0.0,0 STARLINK-6055,1 56467U 23064V   24002.15775612  .00000236  00000-0  27570-4 0  9991,2 56467  70.0011 335.4410 0002714 267.3096  92.7752 14.98329471 36634,6950.195,96.107,573.946,570.173,0.0
56467.0,STARLINK-6055,PAYLOAD,2024-01-02 08:35:33,14.98358351,0.000235,70.0009,334.9352,261.5413,98.548,-0.00037654,-4.586e-05,0.0,0 STARLINK-6055,1 56467U 23064V   24002.35802659 -.00004586  00000-0 -37654-3 0  9992,2 56467  70.0009 334.9352 0002350 261.5413  98.5480 14.98358351 36669,6950.105,96.105,573.603,570.337,0.0
56467.0,STARLINK-6055,PAYLOAD,2024-01-03 03:49:11,14.98311269,0.0002713,70.0015,332.916,262.5076,97.5775,0.00026352,3.051e-05,0.0,0 STARLINK-6055,1 56467U 23064V   24003.15915910  .00003051  00000-0  26352-3 0  9993,2 56467  70.0015 332.9160 0002713 262.5076  97.5775 14.98311269 36786,6950.251,96.108,574.001,570.23,0.0
56467.0,STARLINK-6055,PAYLOAD,2024-01-03 08:37:35,14.98311952,0.0002763,70.0011,332.4106,264.048,96.0364,0.00020656,2.371e-05,0.0,0 STARLINK-6055,1 56467U 23064V   24003.35944229  .00002371  00000-0  20656-3 0  9995,2 56467  70.0011 332.4106 0002763 264.0480  96.0364 14.98311952 36459,6950.249,96.108,574.034,570.193,0.0
56467.0,STARLINK-6055,PAYLOAD,2024-01-03 23:02:47,14.98326551,0.0002715,70.0011,330.8969,258.6251,101.4603,5.2757e-05,5.37e-06,0.0,0 STARLINK-6055,1 56467U 23064V   24003.96027521  .00000537  00000-0  52757-4 0  9999,2 56467  70.0011 330.8969 0002715 258.6251 101.4603 14.98326551 36548,6950.204,96.107,573.956,570.182,0.0
56467.0,STARLINK-6055,PAYLOAD,2024-01-04 03:51:12,14.98320563,0.000279,70.0011,330.392,257.5642,102.5205,0.00014257,1.608e-05,0.0,0 STARLINK-6055,1 56467U 23064V   24004.16055681  .00001608  00000-0  14257-3 0  9992,2 56467  70.0011 330.3920 0002790 257.5642 102.5205 14.98320563 36935,6950.222,96.108,574.026,570.148,0.0
56467.0,STARLINK-6055,PAYLOAD,2024-01-04 07:03:28,14.98330463,0.000312,70.0005,330.054,271.6743,88.4059,-5.2729e-06,-1.56e-06,0.0,0 STARLINK-6055,1 56467U 23064V   24004.29407474 -.00000156  00000-0 -52729-5 0  9994,2 56467  70.0005 330.0540 0003120 271.6743  88.4059 14.98330463 36591,6950.191,96.107,574.225,569.888,0.0
56467.0,STARLINK-6055,PAYLOAD,2024-01-05 03:53:13,14.98323039,0.0003,70.0002,327.8657,264.916,95.1657,6.2057e-06,-1.9e-07,0.0,0 STARLINK-6055,1 56467U 23064V   24005.16195995 -.00000019  00000-0  62057-5 0  9995,2 56467  70.0002 327.8657 0003000 264.9160  95.1657 14.98323039 37081,6950.214,96.107,574.164,569.994,0.0
56467.0,STARLINK-6055,PAYLOAD,2024-01-05 07:05:29,14.98326581,0.000291,70.0006,327.5301,262.6964,97.3864,1.0442e-05,3.2e-07,0.0,0 STARLINK-6055,1 56467U 23064V   24005.29547815  .00000032  00000-0  10442-4 0  9995,2 56467  70.0006 327.5301 0002910 262.6964  97.3864 14.98326581 36745,6950.203,96.107,574.091,570.046,0.0
56467.0,STARLINK-6055,PAYLOAD,2024-01-05 21:30:41,14.98330612,0.0002851,70.0004,326.0135,261.8158,98.2678,2.621e-05,2.2e-06,0.0,0 STARLINK-6055,1 56467U 23064V   24005.89631461  .00000220  00000-0  26210-4 0  9991,2 56467  70.0004 326.0135 0002851 261.8158  98.2678 14.98330612 36835,6950.191,96.107,574.037,570.074,0.0
56467.0,STARLINK-6055,PAYLOAD,2024-01-06 03:55:13,14.9833055,0.000296,70.0007,325.3399,268.302,91.78,9.4637e-05,1.036e-05,0.0,0 STARLINK-6055,1 56467U 23064V   24006.16335277  .00001036  00000-0  94637-4 0  9992,2 56467  70.0007 325.3399 0002960 268.3020  91.7800 14.98330550 37234,6950.191,96.107,574.113,569.999,0.0
56467.0,STARLINK-6055,PAYLOAD,2024-01-06 07:07:29,14.98335975,0.0002815,70.0005,325.0037,264.217,95.8668,8.3478e-05,9.03e-06,0.0,0 STARLINK-6055,1 56467U 23064V   24006.29686922  .00000903  00000-0  83478-4 0  9995,2 56467  70.0005 325.0037 0002815 264.2170  95.8668 14.98335975 36892,6950.174,96.107,573.996,570.083,0.0
56467.0,STARLINK-6055,PAYLOAD,2024-01-06 21:32:42,14.98325039,0.0002374,70.0012,323.4877,259.45,100.6392,0.00012394,1.386e-05,0.0,0 STARLINK-6055,1 56467U 23064V   24006.89771400  .00001386  00000-0  12394-3 0  9991,2 56467  70.0012 323.4877 0002374 259.4500 100.6392 14.98325039 36986,6950.208,96.107,573.723,570.423,0.0
56467.0,STARLINK-6055,PAYLOAD,2024-01-07 03:57:15,14.98324528,0.0002504,70.0015,322.8161,255.7327,104.3554,2.6941e-05,2.29e-06,0.0,0 STARLINK-6055,1 56467U 23064V   24007.16475717  .00000229  00000-0  26941-4 0  9993,2 56467  70.0015 322.8161 0002504 255.7327 104.3554 14.98324528 37387,6950.21,96.107,573.815,570.334,0.0
56467.0,STARLINK-6055,PAYLOAD,2024-01-07 07:09:30,14.98326788,0.0002699,70.0007,322.4784,263.1764,96.9088,9.6976e-05,1.064e-05,0.0,0 STARLINK-6055,1 56467U 23064V   24007.29827416  .00001064  00000-0  96976-4 0  9997,2 56467  70.0007 322.4784 0002699 263.1764  96.9088 14.98326788 37049,6950.203,96.107,573.944,570.192,0.0
56467.0,STARLINK-6055,PAYLOAD,2024-01-07 21:34:43,14.98333707,0.0002666,70.0009,320.9635,268.8114,91.274,-3.5284e-05,-5.14e-06,0.0,0 STARLINK-6055,1 56467U 23064V   24007.89911280 -.00000514  00000-0 -35284-4 0  9992,2 56467  70.0009 320.9635 0002666 268.8114  91.2740 14.98333707 37136,6950.181,96.107,573.899,570.194,0.0
56467.0,STARLINK-6055,PAYLOAD,2024-01-08 03:59:15,14.98334428,0.0002647,70.001,320.2911,261.1773,98.9086,-1.2892e-05,-2.47e-06,0.0,0 STARLINK-6055,1 56467U 23064V   24008.16615107 -.00000247  00000-0 -12892-4 0  9995,2 56467  70.0010 320.2911 0002647 261.1773  98.9086 14.98334428 37536,6950.179,96.107,573.884,570.204,0.0
56467.0,STARLINK-6055,PAYLOAD,2024-01-08 07:11:31,14.98335419,0.0002561,70.0011,319.9543,260.5986,99.4883,-1.6072e-06,-1.12e-06,0.0,0 STARLINK-6055,1 56467U 23064V   24008.29966915 -.00000112  00000-0 -16072-5 0  9991,2 56467  70.0011 319.9543 0002561 260.5986  99.4883 14.98335419 37191,6950.176,96.107,573.821,570.261,0.0
56467.0,STARLINK-6055,PAYLOAD,2024-01-08 21:36:44,14.98329475,0.0002626,70.0014,318.4402,263.6031,96.4829,4.4916e-05,4.43e-06,0.0,0 STARLINK-6055,1 56467U 23064V   24008.90050979  .00000443  00000-0  44916-4 0  9995,2 56467  70.0014 318.4402 0002626 263.6031  96.4829 14.98329475 37281,6950.195,96.107,573.885,570.234,0.0
56467.0,STARLINK-6055,PAYLOAD,2024-01-09 04:01:16,14.98326319,0.0002611,70.0014,317.7673,261.5324,98.5539,4.2809e-05,4.18e-06,0.0,0 STARLINK-6055,1 56467U 23064V   24009.16755183  .00000418  00000-0  42809-4 0  9994,2 56467  70.0014 317.7673 0002611 261.5324  98.5539 14.98326319 37688,6950.204,96.107,573.884,570.255,0.0
56467.0,STARLINK-6055,PAYLOAD,2024-01-09 07:13:32,14.98327341,0.0002591,70.0014,317.4308,259.8916,100.195,5.9153e-05,6.13e-06,0.0,0 STARLINK-6055,1 56467U 23064V   24009.30107081  .00000613  00000-0  59153-4 0  9995,2 56467  70.0014 317.4308 0002591 259.8916 100.1950 14.98327341 37340,6950.201,96.107,573.867,570.265,0.0
56467.0,STARLINK-6055,PAYLOAD,2024-01-09 21:38:44,14.98332548,0.0002538,70.0014,315.9161,251.457,108.6313,-1.4818e-05,-2.7e-06,0.0,0 STARLINK-6055,1 56467U 23064V   24009.90190843 -.00000270  00000-0 -14818-4 0  9999,2 56467  70.0014 315.9161 0002538 251.4570 108.6313 14.98332548 37436,6950.185,96.107,573.814,570.286,0.0
